{
  "satellites": [
    {
      "OBJECT_NAME": "DMSP 5D-3 F16 (USA 172)",
      "TLE_LINE1": "1 28054U 03048A   25296.97976951  .00000203  00000+0  12962-3 0  9998",
      "TLE_LINE2": "2 28054  99.0093 314.0325 0008227  95.7664  15.6845 14.14397497136092",
      "NORAD_CAT_ID": 28054
    },
    {
      "OBJECT_NAME": "METEOSAT-9 (MSG-2)",
      "TLE_LINE1": "1 28912U 05049B   25296.91449900  .00000137  00000+0  00000+0 0  9999",
      "TLE_LINE2": "2 28912   8.8205  56.4321 0002596 176.9380 174.2129  1.00267721  4639",
      "NORAD_CAT_ID": 28912
    },
    {
      "OBJECT_NAME": "DMSP 5D-3 F17 (USA 191)",
      "TLE_LINE1": "1 29522U 06050A   25296.98670743  .00000265  00000+0  15941-3 0  9994",
      "TLE_LINE2": "2 29522  98.7411 303.4061 0010372  16.7256 343.4257 14.14887390979018",
      "NORAD_CAT_ID": 29522
    },
    {
      "OBJECT_NAME": "FENGYUN 3A",
      "TLE_LINE1": "1 32958U 08026A   25296.42836755  .00000195  00000+0  11279-3 0  9994",
      "TLE_LINE2": "2 32958  98.6608 237.0365 0009836  89.7895 270.4408 14.19490148901819",
      "NORAD_CAT_ID": 32958
    },
    {
      "OBJECT_NAME": "GOES 14",
      "TLE_LINE1": "1 35491U 09033A   25296.48655787 -.00000055  00000+0  00000+0 0  9990",
      "TLE_LINE2": "2 35491   1.0644  85.9943 0003878 124.1164 248.7594  1.00272184  4224",
      "NORAD_CAT_ID": 35491
    },
    {
      "OBJECT_NAME": "DMSP 5D-3 F18 (USA 210)",
      "TLE_LINE1": "1 35951U 09057A   25296.93668510  .00000320  00000+0  18900-3 0  9991",
      "TLE_LINE2": "2 35951  98.8773 273.6013 0010515 197.5173 162.5638 14.14728305826185",
      "NORAD_CAT_ID": 35951
    },
    {
      "OBJECT_NAME": "EWS-G2 (GOES 15)",
      "TLE_LINE1": "1 36411U 10008A   25296.93288875  .00000048  00000+0  00000+0 0  9998",
      "TLE_LINE2": "2 36411   0.6828  85.7075 0005793 150.6978 193.5467  1.00275491 57267",
      "NORAD_CAT_ID": 36411
    },
    {
      "OBJECT_NAME": "COMS 1",
      "TLE_LINE1": "1 36744U 10032A   25296.56239301 -.00000331  00000+0  00000+0 0  9999",
      "TLE_LINE2": "2 36744   4.2165  78.5151 0000573 140.3967 143.9483  1.00270944 48715",
      "NORAD_CAT_ID": 36744
    },
    {
      "OBJECT_NAME": "FENGYUN 3B",
      "TLE_LINE1": "1 37214U 10059A   25296.95829279  .00000151  00000+0  10157-3 0  9990",
      "TLE_LINE2": "2 37214  98.9985 336.5686 0022867 134.4565 294.1173 14.14769227774027",
      "NORAD_CAT_ID": 37214
    },
    {
      "OBJECT_NAME": "SUOMI NPP",
      "TLE_LINE1": "1 37849U 11061A   25296.93073845  .00000169  00000+0  10131-3 0  9997",
      "TLE_LINE2": "2 37849  98.7686 234.7400 0000612 344.5596  15.5561 14.19533771724920",
      "NORAD_CAT_ID": 37849
    },
    {
      "OBJECT_NAME": "METEOSAT-10 (MSG-3)",
      "TLE_LINE1": "1 38552U 12035B   25296.19191419  .00000008  00000+0  00000+0 0  9999",
      "TLE_LINE2": "2 38552   4.1064  61.8176 0000389  72.0452 327.5620  1.00266198 48481",
      "NORAD_CAT_ID": 38552
    },
    {
      "OBJECT_NAME": "METOP-B",
      "TLE_LINE1": "1 38771U 12049A   25296.95460379  .00000190  00000+0  10699-3 0  9996",
      "TLE_LINE2": "2 38771  98.6874 347.7384 0001472 329.6036  30.5056 14.21380731679707",
      "NORAD_CAT_ID": 38771
    },
    {
      "OBJECT_NAME": "INSAT-3D",
      "TLE_LINE1": "1 39216U 13038B   25296.85974093 -.00000326  00000+0  00000+0 0  9995",
      "TLE_LINE2": "2 39216   1.3110  85.5989 0001533 123.7760 262.2096  1.00273807 44712",
      "NORAD_CAT_ID": 39216
    },
    {
      "OBJECT_NAME": "FENGYUN 3C",
      "TLE_LINE1": "1 39260U 13052A   25296.91731835  .00000190  00000+0  11783-3 0  9994",
      "TLE_LINE2": "2 39260  98.4709 277.0418 0014491 348.2457  11.8378 14.15672571625134",
      "NORAD_CAT_ID": 39260
    },
    {
      "OBJECT_NAME": "METEOR-M 2",
      "TLE_LINE1": "1 40069U 14037A   25296.97939982  .00000236  00000+0  12732-3 0  9992",
      "TLE_LINE2": "2 40069  98.4848 276.4844 0006023  14.5931 345.5420 14.21356643585760",
      "NORAD_CAT_ID": 40069
    },
    {
      "OBJECT_NAME": "HIMAWARI-8",
      "TLE_LINE1": "1 40267U 14060A   25296.86547420 -.00000263  00000+0  00000+0 0  9990",
      "TLE_LINE2": "2 40267   0.0202 169.5563 0000754  35.4881 279.7444  1.00271745 40395",
      "NORAD_CAT_ID": 40267
    },
    {
      "OBJECT_NAME": "FENGYUN 2G",
      "TLE_LINE1": "1 40367U 14090A   25296.92507240 -.00000285  00000+0  00000+0 0  9991",
      "TLE_LINE2": "2 40367   5.0389  75.6770 0003711 182.3732 206.8886  1.00263488 39638",
      "NORAD_CAT_ID": 40367
    },
    {
      "OBJECT_NAME": "METEOSAT-11 (MSG-4)",
      "TLE_LINE1": "1 40732U 15034A   25296.90730564  .00000075  00000+0  00000+0 0  9997",
      "TLE_LINE2": "2 40732   2.6083  72.1137 0000755  91.1208 205.4874  1.00265091  4846",
      "NORAD_CAT_ID": 40732
    },
    {
      "OBJECT_NAME": "ELEKTRO-L 2",
      "TLE_LINE1": "1 41105U 15074A   25296.18896751 -.00000103  00000+0  00000+0 0  9990",
      "TLE_LINE2": "2 41105   6.0943  73.4298 0002877 184.1845 187.8187  1.00272948 36139",
      "NORAD_CAT_ID": 41105
    },
    {
      "OBJECT_NAME": "INSAT-3DR",
      "TLE_LINE1": "1 41752U 16054A   25296.92004571 -.00000065  00000+0  00000+0 0  9997",
      "TLE_LINE2": "2 41752   0.1491  86.7004 0013071 178.4637 172.6405  1.00272685 33449",
      "NORAD_CAT_ID": 41752
    },
    {
      "OBJECT_NAME": "HIMAWARI-9",
      "TLE_LINE1": "1 41836U 16064A   25296.86547418 -.00000263  00000+0  00000+0 0  9996",
      "TLE_LINE2": "2 41836   0.0104 203.9335 0000706   0.7346 280.1971  1.00271244 32843",
      "NORAD_CAT_ID": 41836
    },
    {
      "OBJECT_NAME": "GOES 16",
      "TLE_LINE1": "1 41866U 16071A   25296.48655787 -.00000080  00000+0  00000+0 0  9991",
      "TLE_LINE2": "2 41866   0.0757  70.1647 0002594 161.4609 231.0215  1.00272475 32735",
      "NORAD_CAT_ID": 41866
    },
    {
      "OBJECT_NAME": "FENGYUN 4A",
      "TLE_LINE1": "1 41882U 16077A   25296.87351508 -.00000345  00000+0  00000+0 0  9996",
      "TLE_LINE2": "2 41882   1.7181  82.8282 0005496 160.2899 227.5690  1.00265292 32566",
      "NORAD_CAT_ID": 41882
    },
    {
      "OBJECT_NAME": "CYGFM05",
      "TLE_LINE1": "1 41884U 16078A   25296.57620573  .00020795  00000+0  42840-3 0  9999",
      "TLE_LINE2": "2 41884  34.9613  14.1761 0009253  79.4736 280.7026 15.44931894491993",
      "NORAD_CAT_ID": 41884
    },
    {
      "OBJECT_NAME": "CYGFM04",
      "TLE_LINE1": "1 41885U 16078B   25296.54598609  .00023468  00000+0  44524-3 0  9992",
      "TLE_LINE2": "2 41885  34.9362 350.4242 0008507 111.0648 249.0983 15.47304947492156",
      "NORAD_CAT_ID": 41885
    },
    {
      "OBJECT_NAME": "CYGFM02",
      "TLE_LINE1": "1 41886U 16078C   25296.52782404  .00025057  00000+0  45122-3 0  9990",
      "TLE_LINE2": "2 41886  34.9452 349.5768 0009986 107.0159 253.1657 15.48772054492279",
      "NORAD_CAT_ID": 41886
    },
    {
      "OBJECT_NAME": "CYGFM01",
      "TLE_LINE1": "1 41887U 16078D   25296.65146033  .00021946  00000+0  44054-3 0  9993",
      "TLE_LINE2": "2 41887  34.9445  16.3851 0008844  70.3880 289.7795 15.45681793491946",
      "NORAD_CAT_ID": 41887
    },
    {
      "OBJECT_NAME": "CYGFM08",
      "TLE_LINE1": "1 41888U 16078E   25296.61491183  .00023358  00000+0  45163-3 0  9990",
      "TLE_LINE2": "2 41888  34.9475   0.1620 0010589  95.2190 264.9740 15.46740011492164",
      "NORAD_CAT_ID": 41888
    },
    {
      "OBJECT_NAME": "CYGFM07",
      "TLE_LINE1": "1 41890U 16078G   25296.57036122  .00022944  00000+0  43615-3 0  9996",
      "TLE_LINE2": "2 41890  34.9490 349.6981 0008971 115.8109 244.3539 15.47249553492171",
      "NORAD_CAT_ID": 41890
    },
    {
      "OBJECT_NAME": "CYGFM03",
      "TLE_LINE1": "1 41891U 16078H   25296.53260199  .00023390  00000+0  44596-3 0  9991",
      "TLE_LINE2": "2 41891  34.9445 351.8373 0007913 101.5794 258.5816 15.47170082492141",
      "NORAD_CAT_ID": 41891
    },
    {
      "OBJECT_NAME": "FENGYUN 3D",
      "TLE_LINE1": "1 43010U 17072A   25296.91022647  .00000162  00000+0  98410-4 0  9994",
      "TLE_LINE2": "2 43010  98.9816 262.4927 0001965  35.5105 324.6201 14.19660823411467",
      "NORAD_CAT_ID": 43010
    },
    {
      "OBJECT_NAME": "NOAA 20 (JPSS-1)",
      "TLE_LINE1": "1 43013U 17073A   25296.94518993  .00000146  00000+0  90357-4 0  9999",
      "TLE_LINE2": "2 43013  98.7514 233.8073 0000597 155.3517 204.7688 14.19505584410957",
      "NORAD_CAT_ID": 43013
    },
    {
      "OBJECT_NAME": "GOES 17",
      "TLE_LINE1": "1 43226U 18022A   25296.88763222 -.00000171  00000+0  00000+0 0  9990",
      "TLE_LINE2": "2 43226   0.3257  90.2562 0002723 163.7775   8.5848  1.00272794 28050",
      "NORAD_CAT_ID": 43226
    },
    {
      "OBJECT_NAME": "FENGYUN 2H",
      "TLE_LINE1": "1 43491U 18050A   25296.92108571 -.00000115  00000+0  00000+0 0  9998",
      "TLE_LINE2": "2 43491   2.4178  81.8823 0002340 142.6885 218.6565  1.00276186 27078",
      "NORAD_CAT_ID": 43491
    },
    {
      "OBJECT_NAME": "METOP-C",
      "TLE_LINE1": "1 43689U 18087A   25296.91652767  .00000213  00000+0  11718-3 0  9997",
      "TLE_LINE2": "2 43689  98.6999 355.4315 0002097 117.7566 242.3824 14.21484220361260",
      "NORAD_CAT_ID": 43689
    },
    {
      "OBJECT_NAME": "GEO-KOMPSAT-2A",
      "TLE_LINE1": "1 43823U 18100A   25296.50461344  .00000000  00000+0  00000+0 0  9999",
      "TLE_LINE2": "2 43823   0.0225  61.3454 0001119  77.6747 203.0510  1.00266798 25258",
      "NORAD_CAT_ID": 43823
    },
    {
      "OBJECT_NAME": "METEOR-M2 2",
      "TLE_LINE1": "1 44387U 19038A   25296.92911788  .00000257  00000+0  13107-3 0  9994",
      "TLE_LINE2": "2 44387  98.8919 276.0609 0001407  26.9445 333.1806 14.24259547327665",
      "NORAD_CAT_ID": 44387
    },
    {
      "OBJECT_NAME": "ARKTIKA-M 1",
      "TLE_LINE1": "1 47719U 21016A   25273.30456647 -.00000067  00000+0  00000+0 0  9994",
      "TLE_LINE2": "2 47719  63.1648  93.9278 7163271 268.8764  16.0765  2.00626972 33571",
      "NORAD_CAT_ID": 47719
    }
  ],
  "timestamp": "2025-10-24T17:14:05.811956"
}